{"epoch":1784762836,"count":18316,"objects":[{"id":"28054","name":"DMSP 5D-3 F16 (USA 172)","type":"PAYLOAD","l1":"1 28054U 03048A   26203.55327822 -.00000024  00000-0  11175-4 0  9997","l2":"2 28054  98.9887 227.6143 0007918  53.1379 112.0222 14.14484902174489"},{"id":"28912","name":"METEOSAT 9 (MSG 2)","type":"PAYLOAD","l1":"1 28912U 05049B   26202.80655422  .00000119  00000-0  00000-0 0  9995","l2":"2 28912   9.4377  53.8213 0002479   0.0905 221.7142  1.00275911  7341"},{"id":"29522","name":"DMSP 5D-3 F17 (USA 191)","type":"PAYLOAD","l1":"1 29522U 06050A   26203.52528489 -.00000003  00000-0  21041-4 0  9993","l2":"2 29522  98.7391 209.3741 0009317 320.7625  39.2872 14.14996602 17427"},{"id":"32958","name":"FENGYUN 3A","type":"PAYLOAD","l1":"1 32958U 08026A   26203.57093848  .00000048  00000-0  43355-4 0  9996","l2":"2 32958  98.6886 143.7435 0009363  32.4409 327.7342 14.19577609940420"},{"id":"35491","name":"EWS-G3","type":"PAYLOAD","l1":"1 35491U 09033A   26203.53378231 -.00000357  00000-0  00000-0 0  9998","l2":"2 35491   1.7784  82.6044 0002224  39.1915 131.0866  1.00094950  6945"},{"id":"35951","name":"DMSP 5D-3 F18 (USA 210)","type":"PAYLOAD","l1":"1 35951U 09057A   26203.56956709  .00000207  00000-0  13011-3 0  9992","l2":"2 35951  98.9063 184.2664 0011634 145.3073 214.8861 14.14915108864595"},{"id":"36411","name":"EWS-G2","type":"PAYLOAD","l1":"1 36411U 10008A   26203.48424090  .00000025  00000-0  00000-0 0  9995","l2":"2 36411   1.3727  82.3814 0005619  52.4223  42.9946  1.00272217 59990"},{"id":"36744","name":"COMS 1","type":"PAYLOAD","l1":"1 36744U 10032A   26203.45850079 -.00000155  00000-0  00000-0 0  9993","l2":"2 36744   4.8933  74.9302 0011516  15.3115 308.1968  0.99166246 51439"},{"id":"37214","name":"FENGYUN 3B","type":"PAYLOAD","l1":"1 37214U 10059A   26203.61073897 -.00000043  00000-0  77998-6 0  9990","l2":"2 37214  98.9603 249.7717 0023254  86.6405  68.3903 14.14848015812439"},{"id":"37849","name":"NPP","type":"PAYLOAD","l1":"1 37849U 11061A   26203.58349626  .00000050  00000-0  44855-4 0  9991","l2":"2 37849  98.7956 144.2191 0001129 182.6697 177.4473 14.19523725763469"},{"id":"38552","name":"METEOSAT 10 (MSG 3)","type":"PAYLOAD","l1":"1 38552U 12035B   26203.32916138 -.00000007  00000-0  00000-0 0  9998","l2":"2 38552   4.7526  60.8450 0001480  19.6076 338.1718  1.00273082 51206"},{"id":"38771","name":"METOP-B","type":"PAYLOAD","l1":"1 38771U 12049A   26203.52580751  .00000061  00000-0  47717-4 0  9995","l2":"2 38771  98.6484 254.3164 0001386 217.6689 142.4392 14.21447825718288"},{"id":"39216","name":"INSAT 3D","type":"PAYLOAD","l1":"1 39216U 13038B   26203.52753090 -.00000337  00000-0  00000-0 0  9994","l2":"2 39216   2.0149  82.0946 0001127  43.4973 134.0969  1.00273001 47433"},{"id":"39260","name":"FENGYUN 3C","type":"PAYLOAD","l1":"1 39260U 13052A   26203.59249420  .00000067  00000-0  55103-4 0  9990","l2":"2 39260  98.5006 175.8465 0013457 282.9541  77.0131 14.15761974663578"},{"id":"40069","name":"METEOR M2","type":"PAYLOAD","l1":"1 40069U 14037A   26203.62205293  .00000199  00000-0  11034-3 0  9997","l2":"2 40069  98.5143 178.1099 0004746 301.7994  58.2721 14.21471017624353"},{"id":"40267","name":"HIMAWARI 8","type":"PAYLOAD","l1":"1 40267U 14060A   26203.52197340 -.00000272  00000-0  00000-0 0  9996","l2":"2 40267   0.0405 266.5202 0001351 250.3537 111.9513  1.00270870 43113"},{"id":"40367","name":"FENGYUN 2G","type":"PAYLOAD","l1":"1 40367U 14090A   26203.63397087 -.00000304  00000-0  00000-0 0  9998","l2":"2 40367   5.7264  72.3849 0003696 171.6646  24.0860  1.00278507 42358"},{"id":"40732","name":"METEOSAT 11 (MSG 4)","type":"PAYLOAD","l1":"1 40732U 15034A   26203.33098138  .00000063  00000-0  00000-0 0  9996","l2":"2 40732   3.2862  70.8805 0001987 355.6013   2.0313  1.00274087  7561"},{"id":"41105","name":"ELEKTRO-L 2","type":"PAYLOAD","l1":"1 41105U 15074A   26203.32630135 -.00000119  00000-0  00000-0 0  9996","l2":"2 41105   6.7802  70.0895 0000678 231.3120 101.6553  1.00272517 38858"},{"id":"41335","name":"SENTINEL 3A","type":"PAYLOAD","l1":"1 41335U 16011A   26203.49186501  .00000052  00000-0  39660-4 0  9997","l2":"2 41335  98.6231 270.3652 0001298  88.4537 271.6792 14.26741178543093"},{"id":"41752","name":"INSAT 3DR","type":"PAYLOAD","l1":"1 41752U 16054A   26203.48640758 -.00000073  00000-0  00000-0 0  9991","l2":"2 41752   0.0877  89.0502 0010267 180.2771 279.9928  1.00271715 36176"},{"id":"41836","name":"HIMAWARI 9","type":"PAYLOAD","l1":"1 41836U 16064A   26203.52197340  .00000000  00000-0  00000-0 0  9993","l2":"2 41836   0.0129  45.4131 0002244 126.1551  97.3582  1.00271201 35564"},{"id":"41866","name":"GOES 16","type":"PAYLOAD","l1":"1 41866U 16071A   26203.45104741 -.00000088  00000-0  00000-0 0  9996","l2":"2 41866   0.4219  85.4347 0000713  71.5224 200.9144  1.00271851 35458"},{"id":"41882","name":"FENGYUN 4A","type":"PAYLOAD","l1":"1 41882U 16077A   26203.63882422 -.00000356  00000-0  00000-0 0  9997","l2":"2 41882   2.4104  79.8782 0008077 159.0108  55.0833  1.00265021 35282"},{"id":"41884","name":"CYGFM05","type":"PAYLOAD","l1":"1 41884U 16078A   26203.56256625  .00027676  00000-0  35479-3 0  9996","l2":"2 41884  34.9575  26.0699 0005291 119.2521 240.8733 15.58125584534272"},{"id":"41885","name":"CYGFM04","type":"PAYLOAD","l1":"1 41885U 16078B   26203.54567221  .00034861  00000-0  36360-3 0  9996","l2":"2 41885  34.9331 352.0121 0004473 169.1982 190.8841 15.63440908534530"},{"id":"41886","name":"CYGFM02","type":"PAYLOAD","l1":"1 41886U 16078C   26203.53841189  .00041760  00000-0  38037-3 0  9993","l2":"2 41886  34.9411 345.4993 0005135 170.1710 189.9119 15.66795650534717"},{"id":"41887","name":"CYGFM01","type":"PAYLOAD","l1":"1 41887U 16078D   26203.59930263  .00027690  00000-0  34527-3 0  9998","l2":"2 41887  34.9405  26.5864 0005133 112.0208 248.1062 15.58856349534236"},{"id":"41888","name":"CYGFM08","type":"PAYLOAD","l1":"1 41888U 16078E   26203.55909910  .00033141  00000-0  36869-3 0  9999","l2":"2 41888  34.9439   5.4549 0006174 150.5791 209.5283 15.61791253534502"},{"id":"41890","name":"CYGFM07","type":"PAYLOAD","l1":"1 41890U 16078G   26203.51590144  .00032818  00000-0  36372-3 0  9992","l2":"2 41890  34.9456 354.0536 0004922 167.8361 192.2485 15.61898102534521"},{"id":"41891","name":"CYGFM03","type":"PAYLOAD","l1":"1 41891U 16078H   26203.55108710  .00032621  00000-0  36177-3 0  9996","l2":"2 41891  34.9410 355.7465 0004491 151.6530 208.4441 15.61884841534506"}]}